NORAD_CAT_ID,OBJECT_NAME,OBJECT_TYPE,EPOCH,MEAN_MOTION,ECCENTRICITY,INCLINATION,RA_OF_ASC_NODE,ARG_OF_PERICENTER,MEAN_ANOMALY,BSTAR,MEAN_MOTION_DOT,MEAN_MOTION_DDOT,TLE_LINE0,TLE_LINE1,TLE_LINE2,SEMIMAJOR_AXIS,PERIOD,APOGEE,PERIGEE,DECAYED
52621.0,STARLINK-3984,PAYLOAD,2022-10-07 05:56:26,15.088454999999998,0.0002065999999999,53.2173,118.0899,52.2324,307.8855,0.00051005,7.840000000000001e-05,0.0,0 STARLINK-3984,1 52621U 22052Z   22280.24752620  .00007840  00000-0  51005-3 0  9992,2 52621  53.2173 118.0899 0002066  52.2324 307.8855 15.08845500 22744,6917.864000000001,95.437,541.158,538.299,0.0
52621.0,STARLINK-3984,PAYLOAD,2022-10-07 20:14:54,15.08844022,0.0001903,53.2168,115.4157,44.5989,315.5156,0.00021806,3.184e-05,0.0,0 STARLINK-3984,1 52621U 22052Z   22280.84368391  .00003184  00000-0  21806-3 0  9999,2 52621  53.2168 115.4157 0001903  44.5989 315.5156 15.08844022 22452,6917.868,95.437,541.05,538.4169999999998,0.0
52621.0,STARLINK-3984,PAYLOAD,2022-10-08 05:47:13,15.08849459,0.000184,53.2165,113.6314,45.5253,314.5889,0.00064309,9.964e-05,0.0,0 STARLINK-3984,1 52621U 22052Z   22281.24112324  .00009964  00000-0  64309-3 0  9994,2 52621  53.2165 113.6314 0001840  45.5253 314.5889 15.08849459 22517,6917.851,95.437,540.989,538.444,0.0
52621.0,STARLINK-3984,PAYLOAD,2022-10-08 20:05:41,15.08839111,0.0001932,53.2164,110.9536,48.4396,311.6762,0.00013452,1.853e-05,0.0,0 STARLINK-3984,1 52621U 22052Z   22281.83728709  .00001853  00000-0  13452-3 0  9991,2 52621  53.2164 110.9536 0001932  48.4396 311.6762 15.08839111 22987,6917.8830000000025,95.438,541.085,538.4119999999998,0.0
52621.0,STARLINK-3984,PAYLOAD,2022-10-09 11:59:33,15.08840627,0.0002011,53.2158,107.9805,49.0609,311.0557,0.00038811,5.894e-05,0.0,0 STARLINK-3984,1 52621U 22052Z   22282.49968953  .00005894  00000-0  38811-3 0  9996,2 52621  53.2158 107.9805 0002011  49.0609 311.0557 15.08840627 22708,6917.878000000002,95.438,541.135,538.352,0.0
52621.0,STARLINK-3984,PAYLOAD,2022-10-09 19:56:28,15.08838656,0.0002000999999999,53.2164,106.4935,48.4273,311.689,0.00013142,1.804e-05,0.0,0 STARLINK-3984,1 52621U 22052Z   22282.83089027  .00001804  00000-0  13142-3 0  9997,2 52621  53.2164 106.4935 0002001  48.4273 311.6890 15.08838656 22752,6917.884,95.438,541.134,538.365,0.0
52621.0,STARLINK-3984,PAYLOAD,2022-10-10 05:28:47,15.08844134,0.000197,53.2165,104.7093,49.4797,310.6367,0.00020709,3.01e-05,0.0,0 STARLINK-3984,1 52621U 22052Z   22283.22832810  .00003010  00000-0  20709-3 0  9995,2 52621  53.2165 104.7093 0001970  49.4797 310.6367 15.08844134 23190,6917.868,95.437,541.096,538.37,0.0
52621.0,STARLINK-3984,PAYLOAD,2022-10-10 11:50:20,15.08839988,0.0001834,53.2162,103.5199,53.1839,306.9322,0.00015536,2.185e-05,0.0,0 STARLINK-3984,1 52621U 22052Z   22283.49328984  .00002185  00000-0  15536-3 0  9990,2 52621  53.2162 103.5199 0001834  53.1839 306.9322 15.08839988 22851,6917.88,95.438,541.014,538.477,0.0
52621.0,STARLINK-3984,PAYLOAD,2022-10-10 18:11:52,15.0884085,0.0001756,53.2165,102.3303,54.9047,305.2109,0.00016316,2.31e-05,0.0,0 STARLINK-3984,1 52621U 22052Z   22283.75825013  .00002310  00000-0  16316-3 0  9991,2 52621  53.2165 102.3303 0001756  54.9047 305.2109 15.08840850 23273,6917.878000000002,95.438,540.9580000000002,538.528,0.0
52621.0,STARLINK-3984,PAYLOAD,2022-10-11 11:41:07,15.08828746,0.0001885999999999,53.216,99.0599,42.1699,317.9438,0.00032512,4.888e-05,0.0,0 STARLINK-3984,1 52621U 22052Z   22284.48689595  .00004888  00000-0  32512-3 0  9993,2 52621  53.2160  99.0599 0001886  42.1699 317.9438 15.08828746 23380,6917.915,95.438,541.085,538.475,0.0
52621.0,STARLINK-3984,PAYLOAD,2022-10-11 14:51:53,15.08838064,0.0001878,53.2162,98.4654,49.0263,311.0891,0.00010381,1.364e-05,0.0,0 STARLINK-3984,1 52621U 22052Z   22284.61937169  .00001364  00000-0  10381-3 0  9997,2 52621  53.2162  98.4654 0001878  49.0263 311.0891 15.08838064 23024,6917.886,95.438,541.05,538.452,0.0
52621.0,STARLINK-3984,PAYLOAD,2022-10-12 08:21:08,15.088262099999998,0.0001807,53.2175,95.1955,46.4033,313.7108,0.00011202,1.495e-05,0.0,0 STARLINK-3984,1 52621U 22052Z   22285.34801995  .00001495  00000-0  11202-3 0  9993,2 52621  53.2175  95.1955 0001807  46.4033 313.7108 15.08826210 23518,6917.9230000000025,95.438,541.038,538.5369999999998,0.0
52621.0,STARLINK-3984,PAYLOAD,2022-10-12 11:31:54,15.08836964,0.0001881,53.2172,94.6002,49.0387,311.0768,5.6454e-05,6.1e-06,0.0,0 STARLINK-3984,1 52621U 22052Z   22285.48049535  .00000610  00000-0  56454-4 0  9999,2 52621  53.2172  94.6002 0001881  49.0387 311.0768 15.08836964 23155,6917.89,95.438,541.056,538.453,0.0
52621.0,STARLINK-3984,PAYLOAD,2022-10-12 14:42:41,15.08838056,0.0001896,53.2174,94.0058,48.3912,311.7243,6.2218e-05,7.02e-06,0.0,0 STARLINK-3984,1 52621U 22052Z   22285.61297466  .00000702  00000-0  62218-4 0  9999,2 52621  53.2174  94.0058 0001896  48.3912 311.7243 15.08838056 23557,6917.886,95.438,541.063,538.44,0.0
52621.0,STARLINK-3984,PAYLOAD,2022-10-12 21:04:13,15.0884249,0.0001939,53.2174,92.8163,47.7096,312.4061,8.1857e-05,1.015e-05,0.0,0 STARLINK-3984,1 52621U 22052Z   22285.87793136  .00001015  00000-0  81857-4 0  9990,2 52621  53.2174  92.8163 0001939  47.7096 312.4061 15.08842490 23210,6917.873000000001,95.437,541.0790000000002,538.396,0.0
52621.0,STARLINK-3984,PAYLOAD,2022-10-13 11:22:41,15.08837739,0.0001833,53.2173,90.1394,53.2477,306.8683,8.780100000000001e-05,1.109e-05,0.0,0 STARLINK-3984,1 52621U 22052Z   22286.47409382  .00001109  00000-0  87801-4 0  9993,2 52621  53.2173  90.1394 0001833  53.2477 306.8683 15.08837739 23301,6917.887,95.438,541.02,538.484,0.0
52621.0,STARLINK-3984,PAYLOAD,2022-10-13 17:44:14,15.08838663,0.0001935,53.2174,88.9505,49.71100000000001,310.4051,0.0001001,1.305e-05,0.0,0 STARLINK-3984,1 52621U 22052Z   22286.73905371  .00001305  00000-0  10010-3 0  9996,2 52621  53.2174  88.9505 0001935  49.7110 310.4051 15.08838663 23721,6917.884,95.438,541.0880000000002,538.411,0.0
52621.0,STARLINK-3984,PAYLOAD,2022-10-14 11:13:28,15.088488,0.0002102,53.2171,85.6798,43.0078,317.1078,-5.5126e-05,-1.166e-05,0.0,0 STARLINK-3984,1 52621U 22052Z   22287.46769274 -.00001166  00000-0 -55126-4 0  9992,2 52621  53.2171  85.6798 0002102  43.0078 317.1078 15.08848800 23450,6917.853,95.437,541.173,538.264,0.0
52621.0,STARLINK-3984,PAYLOAD,2022-10-14 17:35:00,15.08845178,0.0001955,53.2176,84.4904,43.8601,316.2546,0.00012096,1.638e-05,0.0,0 STARLINK-3984,1 52621U 22052Z   22287.73264973  .00001638  00000-0  12096-3 0  9998,2 52621  53.2176  84.4904 0001955  43.8601 316.2546 15.08845178 23495,6917.865,95.437,541.082,538.377,0.0
52621.0,STARLINK-3984,PAYLOAD,2022-10-15 06:18:05,15.08845447,0.0001889,53.2179,82.1114,40.9342,319.1792,9.2014e-05,1.177e-05,0.0,0 STARLINK-3984,1 52621U 22052Z   22288.26256759  .00001177  00000-0  92014-4 0  9997,2 52621  53.2179  82.1114 0001889  40.9342 319.1792 15.08845447 23957,6917.864000000001,95.437,541.036,538.422,0.0
52621.0,STARLINK-3984,PAYLOAD,2022-10-15 12:39:38,15.08848438,0.0001898,53.2181,80.9222,38.1393,321.9734,6.7165e-05,7.81e-06,0.0,0 STARLINK-3984,1 52621U 22052Z   22288.52752587  .00000781  00000-0  67165-4 0  9995,2 52621  53.2181  80.9222 0001898  38.1393 321.9734 15.08848438 23614,6917.855,95.437,541.033,538.4069999999998,0.0
52621.0,STARLINK-3984,PAYLOAD,2022-10-15 17:25:47,15.08847513,0.0001901,53.2181,80.0299,40.4242,319.6891,8.563e-05,1.075e-05,0.0,0 STARLINK-3984,1 52621U 22052Z   22288.72624475  .00001075  00000-0  85630-4 0  9995,2 52621  53.2181  80.0299 0001901  40.4242 319.6891 15.08847513 23647,6917.857,95.437,541.038,538.4069999999998,0.0
52621.0,STARLINK-3984,PAYLOAD,2022-10-16 02:58:07,15.0883919,0.0001931,53.219,78.24600000000002,37.4856,322.627,-1.8568e-05,-5.84e-06,0.0,0 STARLINK-3984,1 52621U 22052Z   22289.12369288 -.00000584  00000-0 -18568-4 0  9990,2 52621  53.2190  78.2460 0001931  37.4856 322.6270 15.08839190 24082,6917.8830000000025,95.438,541.0840000000002,538.4119999999998,0.0
52621.0,STARLINK-3984,PAYLOAD,2022-10-16 09:19:40,15.08821925,0.0001855,53.2185,77.0565,37.2328,322.8793,-9.9477e-05,-1.87e-05,0.0,0 STARLINK-3984,1 52621U 22052Z   22289.38866652 -.00001870  00000-0 -99477-4 0  9992,2 52621  53.2185  77.0565 0001855  37.2328 322.8793 15.08821925 23747,6917.936,95.439,541.0840000000002,538.5169999999998,0.0
52621.0,STARLINK-3984,PAYLOAD,2022-10-16 17:16:36,15.08820213,0.0001961,53.218,75.5695,44.355,315.7599,-0.00011637,-2.139e-05,0.0,0 STARLINK-3984,1 52621U 22052Z   22289.71987107 -.00002139  00000-0 -11637-3 0  9998,2 52621  53.2180  75.5695 0001961  44.3550 315.7599 15.08820213 23792,6917.941,95.439,541.1619999999998,538.4490000000002,0.0
52621.0,STARLINK-3984,PAYLOAD,2022-10-17 02:48:55,15.08829152,0.0001998,53.2182,73.7854,43.0427,317.0721,-8.301700000000001e-05,-1.609e-05,0.0,0 STARLINK-3984,1 52621U 22052Z   22290.11730775 -.00001609  00000-0 -83017-4 0  9994,2 52621  53.2182  73.7854 0001998  43.0427 317.0721 15.08829152 24233,6917.9140000000025,95.438,541.161,538.396,0.0
52621.0,STARLINK-3984,PAYLOAD,2022-10-17 12:21:13,15.08837857,0.0001953,53.2183,72.0011,48.166,311.9499,-6.850000000000001e-05,-1.378e-05,0.0,0 STARLINK-3984,1 52621U 22052Z   22290.51474376 -.00001378  00000-0 -68500-4 0  9993,2 52621  53.2183  72.0011 0001953  48.1660 311.9499 15.08837857 23917,6917.887,95.438,541.1030000000002,538.401,0.0
52621.0,STARLINK-3984,PAYLOAD,2022-10-17 17:07:23,15.088371300000002,0.0002014,53.2185,71.1089,42.8983,317.2166,-7.501900000000003e-06,-4.08e-06,0.0,0 STARLINK-3984,1 52621U 22052Z   22290.71346329 -.00000408  00000-0 -75019-5 0  9998,2 52621  53.2185  71.1089 0002014  42.8983 317.2166 15.08837130 24322,6917.889,95.438,541.1469999999998,538.361,0.0
52621.0,STARLINK-3984,PAYLOAD,2022-10-18 09:01:14,15.08829934,0.0001942,53.2188,68.1351,42.4636,317.6506,0.00020495,2.974e-05,0.0,0 STARLINK-3984,1 52621U 22052Z   22291.37586297  .00002974  00000-0  20495-3 0  9995,2 52621  53.2188  68.1351 0001942  42.4636 317.6506 15.08829934 24047,6917.911,95.438,541.12,538.433,0.0
